{
  "type": "FeatureCollection",
  "features": [
    {
      "type": "Feature",
      "properties": {
        "norad_id": 29985,
        "name": "FENGYUN 1C DEB",
        "group": "fengyun-1c-debris",
        "lat": -14.820574938035486,
        "lon": 14.747070700917906,
        "alt_km": 883.0914795506606,
        "timestamp": "2025-12-23T16:57:12.625151+00:00",
        "meta_object_name": "FENGYUN 1C DEB",
        "meta_object_id": "1999-025LK",
        "meta_epoch": "2025-12-22T22:36:21.180384",
        "meta_mean_motion": 14.10325816,
        "meta_eccentricity": 0.0028624,
        "meta_inclination": 98.71,
        "meta_ra_of_asc_node": 11.682,
        "meta_arg_of_pericenter": 179.8513,
        "meta_mean_anomaly": 245.9434,
        "meta_ephemeris_type": 0,
        "meta_classification_type": "U",
        "meta_norad_cat_id": 29985,
        "meta_element_set_no": 999,
        "meta_rev_at_epoch": 97492,
        "meta_bstar": 2.4368e-05,
        "meta_mean_motion_dot": 1e-08,
        "meta_mean_motion_ddot": 0,
        "tle_line1": "1 29985U 99025LK  25356.94191181  .00000001  00000+0  24368-4 0  9990",
        "tle_line2": "2 29985  98.7100  11.6820 0028624 179.8513 245.9434 14.10325816974927"
      },
      "geometry": {
        "type": "Point",
        "coordinates": [
          14.747070700917906,
          -14.820574938035486
        ]
      }
    },
    {
      "type": "Feature",
      "properties": {
        "norad_id": 29986,
        "name": "FENGYUN 1C DEB",
        "group": "fengyun-1c-debris",
        "lat": -13.986089295213745,
        "lon": 68.58802462531291,
        "alt_km": 783.3624768105265,
        "timestamp": "2025-12-23T16:57:12.625161+00:00",
        "meta_object_name": "FENGYUN 1C DEB",
        "meta_object_id": "1999-025LL",
        "meta_epoch": "2025-12-21T18:34:31.117728",
        "meta_mean_motion": 14.29280258,
        "meta_eccentricity": 0.00228728,
        "meta_inclination": 99.3979,
        "meta_ra_of_asc_node": 64.1419,
        "meta_arg_of_pericenter": 329.9678,
        "meta_mean_anomaly": 158.2496,
        "meta_ephemeris_type": 0,
        "meta_classification_type": "U",
        "meta_norad_cat_id": 29986,
        "meta_element_set_no": 999,
        "meta_rev_at_epoch": 97636,
        "meta_bstar": 0.0011709554,
        "meta_mean_motion_dot": 2.937e-05,
        "meta_mean_motion_ddot": 0,
        "tle_line1": "1 29986U 99025LL  25355.77397127  .00002937  00000+0  11710-2 0  9994",
        "tle_line2": "2 29986  99.3979  64.1419 0022872 329.9678 158.2496 14.29280258976369"
      },
      "geometry": {
        "type": "Point",
        "coordinates": [
          68.58802462531291,
          -13.986089295213745
        ]
      }
    },
    {
      "type": "Feature",
      "properties": {
        "norad_id": 29987,
        "name": "FENGYUN 1C DEB",
        "group": "fengyun-1c-debris",
        "lat": 77.74731396313615,
        "lon": -156.51110692107284,
        "alt_km": 864.4287139659773,
        "timestamp": "2025-12-23T16:57:12.625172+00:00",
        "meta_object_name": "FENGYUN 1C DEB",
        "meta_object_id": "1999-025LM",
        "meta_epoch": "2025-12-23T05:17:07.709568",
        "meta_mean_motion": 14.1463064,
        "meta_eccentricity": 0.00786562,
        "meta_inclination": 98.8977,
        "meta_ra_of_asc_node": 249.1698,
        "meta_arg_of_pericenter": 203.0854,
        "meta_mean_anomaly": 284.7428,
        "meta_ephemeris_type": 0,
        "meta_classification_type": "U",
        "meta_norad_cat_id": 29987,
        "meta_element_set_no": 999,
        "meta_rev_at_epoch": 96521,
        "meta_bstar": 0.0023690772,
        "meta_mean_motion_dot": 4.649e-05,
        "meta_mean_motion_ddot": 0,
        "tle_line1": "1 29987U 99025LM  25357.22022812  .00004649  00000+0  23691-2 0  9996",
        "tle_line2": "2 29987  98.8977 249.1698 0078656 203.0854 284.7428 14.14630640965215"
      },
      "geometry": {
        "type": "Point",
        "coordinates": [
          -156.51110692107284,
          77.74731396313615
        ]
      }
    },
    {
      "type": "Feature",
      "properties": {
        "norad_id": 29988,
        "name": "FENGYUN 1C DEB",
        "group": "fengyun-1c-debris",
        "lat": 76.4666970569158,
        "lon": 62.48882408805461,
        "alt_km": 722.8302737410222,
        "timestamp": "2025-12-23T16:57:12.625182+00:00",
        "meta_object_name": "FENGYUN 1C DEB",
        "meta_object_id": "1999-025LN",
        "meta_epoch": "2025-12-23T06:45:22.254912",
        "meta_mean_motion": 14.50503254,
        "meta_eccentricity": 0.01200797,
        "meta_inclination": 98.6955,
        "meta_ra_of_asc_node": 101.532,
        "meta_arg_of_pericenter": 346.1222,
        "meta_mean_anomaly": 34.7142,
        "meta_ephemeris_type": 0,
        "meta_classification_type": "U",
        "meta_norad_cat_id": 29988,
        "meta_element_set_no": 999,
        "meta_rev_at_epoch": 98220,
        "meta_bstar": 0.0015627919,
        "meta_mean_motion_dot": 6.664e-05,
        "meta_mean_motion_ddot": 0,
        "tle_line1": "1 29988U 99025LN  25357.28150758  .00006664  00000+0  15628-2 0  9994",
        "tle_line2": "2 29988  98.6955 101.5320 0120079 346.1222  34.7142 14.50503254982202"
      },
      "geometry": {
        "type": "Point",
        "coordinates": [
          62.48882408805461,
          76.4666970569158
        ]
      }
    },
    {
      "type": "Feature",
      "properties": {
        "norad_id": 29989,
        "name": "FENGYUN 1C DEB",
        "group": "fengyun-1c-debris",
        "lat": 67.65564803760627,
        "lon": -45.58729232230507,
        "alt_km": 839.3330274473283,
        "timestamp": "2025-12-23T16:57:12.625192+00:00",
        "meta_object_name": "FENGYUN 1C DEB",
        "meta_object_id": "1999-025LP",
        "meta_epoch": "2025-12-23T04:52:36.632928",
        "meta_mean_motion": 14.15824948,
        "meta_eccentricity": 0.01237633,
        "meta_inclination": 98.669,
        "meta_ra_of_asc_node": 335.711,
        "meta_arg_of_pericenter": 165.6482,
        "meta_mean_anomaly": 221.8066,
        "meta_ephemeris_type": 0,
        "meta_classification_type": "U",
        "meta_norad_cat_id": 29989,
        "meta_element_set_no": 999,
        "meta_rev_at_epoch": 97759,
        "meta_bstar": 0.00012567033,
        "meta_mean_motion_dot": 2.24e-06,
        "meta_mean_motion_ddot": 0,
        "tle_line1": "1 29989U 99025LP  25357.20320177  .00000224  00000+0  12567-3 0  9997",
        "tle_line2": "2 29989  98.6690 335.7110 0123763 165.6482 221.8066 14.15824948977599"
      },
      "geometry": {
        "type": "Point",
        "coordinates": [
          -45.58729232230507,
          67.65564803760627
        ]
      }
    },
    {
      "type": "Feature",
      "properties": {
        "norad_id": 29992,
        "name": "FENGYUN 1C DEB",
        "group": "fengyun-1c-debris",
        "lat": 51.22966934418686,
        "lon": -176.42601541608417,
        "alt_km": 785.2118698991862,
        "timestamp": "2025-12-23T16:57:12.625202+00:00",
        "meta_object_name": "FENGYUN 1C DEB",
        "meta_object_id": "1999-025LS",
        "meta_epoch": "2025-12-21T22:07:31.151712",
        "meta_mean_motion": 14.1161468,
        "meta_eccentricity": 0.008931,
        "meta_inclination": 98.7302,
        "meta_ra_of_asc_node": 350.8082,
        "meta_arg_of_pericenter": 141.6939,
        "meta_mean_anomaly": 282.8505,
        "meta_ephemeris_type": 0,
        "meta_classification_type": "U",
        "meta_norad_cat_id": 29992,
        "meta_element_set_no": 999,
        "meta_rev_at_epoch": 97517,
        "meta_bstar": 9.2674073e-05,
        "meta_mean_motion_dot": 1.33e-06,
        "meta_mean_motion_ddot": 0,
        "tle_line1": "1 29992U 99025LS  25355.92188833  .00000133  00000+0  92674-4 0  9996",
        "tle_line2": "2 29992  98.7302 350.8082 0089310 141.6939 282.8505 14.11614680975173"
      },
      "geometry": {
        "type": "Point",
        "coordinates": [
          -176.42601541608417,
          51.22966934418686
        ]
      }
    },
    {
      "type": "Feature",
      "properties": {
        "norad_id": 29993,
        "name": "FENGYUN 1C DEB",
        "group": "fengyun-1c-debris",
        "lat": -45.36248800111561,
        "lon": 43.17461789792488,
        "alt_km": 848.5939239815079,
        "timestamp": "2025-12-23T16:57:12.625212+00:00",
        "meta_object_name": "FENGYUN 1C DEB",
        "meta_object_id": "1999-025LT",
        "meta_epoch": "2025-12-23T01:49:23.137536",
        "meta_mean_motion": 14.08151849,
        "meta_eccentricity": 0.00382339,
        "meta_inclination": 98.7919,
        "meta_ra_of_asc_node": 33.5433,
        "meta_arg_of_pericenter": 284.8898,
        "meta_mean_anomaly": 74.8039,
        "meta_ephemeris_type": 0,
        "meta_classification_type": "U",
        "meta_norad_cat_id": 29993,
        "meta_element_set_no": 999,
        "meta_rev_at_epoch": 97315,
        "meta_bstar": 1.7799835e-05,
        "meta_mean_motion_dot": -1.3e-07,
        "meta_mean_motion_ddot": 0,
        "tle_line1": "1 29993U 99025LT  25357.07596224 -.00000013  00000+0  17800-4 0  9998",
        "tle_line2": "2 29993  98.7919  33.5433 0038233 284.8898  74.8039 14.08151849973151"
      },
      "geometry": {
        "type": "Point",
        "coordinates": [
          43.17461789792488,
          -45.36248800111561
        ]
      }
    }
  ]
}